#aV2022  5 27  0  0  0.00000000     288 DD+AD WGS84 FIT  NGA
## 2211 432000.00000000   300.00000000 59726 0.0000000000000
+   32     1  2  3  4  5  6  7  8  9 10 11 12 13 14 15 16 17
+         18 19 20 21 22 23 24 25 26 27 28 29 30 31 32  0  0
+          0  0  0  0  0  0  0  0  0  0  0  0  0  0  0  0  0
+          0  0  0  0  0  0  0  0  0  0  0  0  0  0  0  0  0
+          0  0  0  0  0  0  0  0  0  0  0  0  0  0  0  0  0
++         2  2  2  2  2  2  2  2  2  2  2  2  2  2  2  2  2
++         2  2  2  2  2  2  2  2  2  2  2  2  2  2  2  0  0
++         0  0  0  0  0  0  0  0  0  0  0  0  0  0  0  0  0
++         0  0  0  0  0  0  0  0  0  0  0  0  0  0  0  0  0
++         0  0  0  0  0  0  0  0  0  0  0  0  0  0  0  0  0
%c cc cc ccc ccc cccc cccc cccc cccc ccccc ccccc ccccc ccccc
%c cc cc ccc ccc cccc cccc cccc cccc ccccc ccccc ccccc ccccc
%f  0.0000000  0.000000000  0.00000000000  0.000000000000000
%f  0.0000000  0.000000000  0.00000000000  0.000000000000000
%i    0    0    0    0      0      0      0      0         0
%i    0    0    0    0      0      0      0      0         0
/*      NGA, ST. LOUIS,MO.                                  
/*   EPHEMERIS COMPUTED FROM 2 DAYS OF DATA                 
/*   EPOCHA v7 SMOOTHER                                     
/*   G2139 IERS2010 SATIGS SATAPC                           
*  2022  5 27 13 30  0.00000000
P  1  13807.706900 -22460.463110   -305.431138    353.948439                    
V  1   1921.561565   1172.152847  32582.094656     -0.081408                    
P  2 -17663.094934   8142.977501 -17505.601561   -653.107964                    
V  2   9106.702887 -21692.452789 -18451.449358      0.001948                    
P  3  13292.862629 -12758.811752 -19195.759535   -258.910472                    
V  3  24113.583894   1728.726951  15752.025575     -0.129289                    
P  4   5329.734594 -18197.933291 -18550.376274   -163.207667                    
V  4  12005.433495  20386.529472 -16624.742797      0.037614                    
P  5 -24808.981309   5812.025737   7600.010439    -83.361017                    
V  5  -9884.502321  -2349.553144 -29668.722440     -0.013739                    
P  6 -11930.912640  -8461.117655 -22107.756519    319.650444                    
V  6  14816.456884 -23927.899190   1235.521910      0.149570                    
P  7   1661.139783 -22292.751883  14354.433513    322.208278                    
V  7  11489.803925 -13796.842373 -23912.827938     -0.000381                    
P  8  11487.089273 -10160.686275  21616.331988    -69.689964                    
V  8  14203.135834  23635.592271   3901.116116     -0.015042                    
P  9  -4294.788273 -23636.896849 -11355.775165   -333.442798                    
V  9   9399.621930  11146.344181 -26937.426928      0.030875                    
P 10  17358.797603  11669.687234  16687.624361   -430.856646                    
V 10 -20786.690477    964.554440  20849.398281     -0.152645                    
P 11 -18869.733322   5634.287780 -17816.483527    -20.233033                    
V 11  11459.965000 -19564.013777 -18345.796001      0.038650                    
P 12 -17837.203186  10120.549296 -17086.806275   -221.901074                    
V 12 -20964.145962  -3543.144507  20211.527733     -0.058389                    
P 13 -15705.910826    -39.959565  21291.666339    319.089041                    
V 13  -9352.748320 -25696.468985  -6728.740248      0.068447                    
P 14 -15731.538367 -13048.015637  17009.879987   -109.932644                    
V 14  21660.848198   -560.250809  19508.522963     -0.012959                    
P 15 -10172.798705  12335.364618  20763.909384    -57.964190                    
V 15 -16816.020561 -21753.479150   4902.808798      0.029963                    
P 16  26565.934064    714.997743   3249.695305   -504.353334                    
V 16   4139.737393   2637.682794 -31295.266448     -0.030704                    
P 17 -13639.415891 -22272.484986  -4237.675902    617.764103                    
V 17   -430.358406  -6343.500675  31574.652564      0.045968                    
P 18  -3185.808231  22474.968352  13690.232296    158.844071                    
V 18 -11025.914717  13636.208539 -25041.903864     -0.103841                    
P 19 -16270.204914 -17284.812721 -12393.186579    162.811634                    
V 19  -4312.130665 -14689.734268  26504.117759      0.049973                    
P 20 -26169.463593    941.846790  -3609.179855    513.923788                    
V 20   4108.619612  -4118.623995 -31066.067997     -0.010477                    
P 21  17135.001996 -16908.412079  11047.610256    161.227504                    
V 21  -3468.067215  13172.002015  27781.948540      0.001034                    
P 22  17026.205344  15032.242994 -13497.429499    265.941204                    
V 22   5223.633854  17124.121915  24721.060093      0.062049                    
P 23   5995.913767  14625.720411  21350.363206    -24.515385                    
V 23 -27085.129847    700.246706   7021.996743     -0.023338                    
P 24 -14432.559831  21535.199155   4353.281024    233.235848                    
V 24   -857.828791  -7130.575162  30757.987592     -0.074548                    
P 25  -2361.243238  15343.510973 -21823.327582    329.963720                    
V 25 -27053.410678   -738.484973   2708.066980      0.047438                    
P 26  25073.904061   4930.571036  -7893.408315    208.444241                    
V 26  -9745.619857   3364.636554 -28869.112811      0.025275                    
P 27  17318.480738   3539.321536  19731.699244    208.919755                    
V 27  11441.702853  22665.766432 -13573.754954      0.049616                    
P 28 -22100.673946 -10110.838265  10942.873235    350.154447                    
V 28  13377.886782   -760.836726  27836.118105     -0.073049                    
P 29   2397.056232  23826.973517 -11467.757587   -517.978748                    
V 29  -7728.424813 -12385.579497 -27540.208617     -0.039105                    
P 30  -6379.316827 -16847.539266  19524.218785   -529.414626                    
V 30  14548.011227 -20114.682414 -12911.982856     -0.013388                    
P 31  14330.582933   6061.126157 -21684.384233   -179.345971                    
V 31 -14602.465041  22964.569315  -2792.696917     -0.015576                    
P 32  16334.701881  20037.165086  -6363.262758   -136.814867                    
V 32   1695.486142   8484.951155  30180.052757     -0.089484                    
EOF
